NORAD_CAT_ID,OBJECT_NAME,OBJECT_TYPE,EPOCH,MEAN_MOTION,ECCENTRICITY,INCLINATION,RA_OF_ASC_NODE,ARG_OF_PERICENTER,MEAN_ANOMALY,BSTAR,MEAN_MOTION_DOT,MEAN_MOTION_DDOT,TLE_LINE0,TLE_LINE1,TLE_LINE2,SEMIMAJOR_AXIS,PERIOD,APOGEE,PERIGEE,DECAYED
55767.0,STARLINK-5606,PAYLOAD,2024-01-22 05:41:14,14.98332754,0.0002729,70.0005,24.8746,268.1742,91.9104,2.4801e-05,2.03e-06,0.0,0 STARLINK-5606,1 55767U 23028AC  24022.23697748  .00000203  00000-0  24801-4 0  9995,2 55767  70.0005  24.8746 0002729 268.1742  91.9104 14.98332754 50077,6950.184,96.107,573.946,570.153,0.0
55767.0,STARLINK-5606,PAYLOAD,2024-01-22 08:53:30,14.98333861,0.0002358,70.0012,24.5378,260.0776,100.0117,6.7256e-05,7.1e-06,0.0,0 STARLINK-5606,1 55767U 23028AC  24022.37049534  .00000710  00000-0  67256-4 0  9998,2 55767  70.0012  24.5378 0002358 260.0776 100.0117 14.98333861 50097,6950.181,96.107,573.685,570.407,0.0
55767.0,STARLINK-5606,PAYLOAD,2024-01-23 02:30:56,14.98358178,0.0002962,70.0002,22.6866,267.4238,92.6582,0.00027302,3.168e-05,0.0,0 STARLINK-5606,1 55767U 23028AC  24023.10482272  .00003168  00000-0  27302-3 0  9997,2 55767  70.0002  22.6866 0002962 267.4238  92.6582 14.98358178 50193,6950.106,96.105,574.029,569.912,0.0
55767.0,STARLINK-5606,PAYLOAD,2024-01-23 05:43:14,14.98336081,0.0002451,70.0018,22.3494,258.2087,101.8797,7.4393e-05,7.95e-06,0.0,0 STARLINK-5606,1 55767U 23028AC  24023.23835962  .00000795  00000-0  74393-4 0  9995,2 55767  70.0018  22.3494 0002451 258.2087 101.8797 14.98336081 50221,6950.174,96.107,573.743,570.336,0.0
55767.0,STARLINK-5606,PAYLOAD,2024-01-23 08:55:31,14.98322805,0.0002278,70.0017,22.0099,263.577,96.5129,-3.3268e-05,-4.9e-06,0.0,0 STARLINK-5606,1 55767U 23028AC  24023.37189146 -.00000490  00000-0 -33268-4 0  9996,2 55767  70.0017  22.0099 0002278 263.5770  96.5129 14.98322805 50232,6950.215,96.107,573.663,570.497,0.0
55767.0,STARLINK-5606,PAYLOAD,2024-01-24 04:09:09,14.98316538,0.0002434,70.0017,19.9947,248.1088,111.9812,-0.00019163,-2.378e-05,0.0,0 STARLINK-5606,1 55767U 23028AC  24024.17302268 -.00002378  00000-0 -19163-3 0  9991,2 55767  70.0017  19.9947 0002434 248.1088 111.9812 14.98316538 50354,6950.235,96.108,573.791,570.408,0.0
55767.0,STARLINK-5606,PAYLOAD,2024-01-24 08:57:33,14.98315543,0.000261,70.0014,19.4894,254.0356,106.0515,-0.00019727,-2.445e-05,0.0,0 STARLINK-5606,1 55767U 23028AC  24024.37330464 -.00002445  00000-0 -19727-3 0  9993,2 55767  70.0014  19.4894 0002610 254.0356 106.0515 14.98315543 50391,6950.238,96.108,573.917,570.289,0.0
55767.0,STARLINK-5606,PAYLOAD,2024-01-25 04:11:09,14.98328622,0.0003443,69.9997,17.4662,277.6654,82.4114,-0.00016607,-2.074e-05,0.0,0 STARLINK-5606,1 55767U 23028AC  24025.17441470 -.00002074  00000-0 -16607-3 0  9994,2 55767  69.9997  17.4662 0003443 277.6654  82.4114 14.98328622 50503,6950.197,96.107,574.455,569.669,0.0
55767.0,STARLINK-5606,PAYLOAD,2024-01-25 08:59:33,14.98333115,0.0002698,70.0007,16.9641,255.7901,104.2959,-8.5068e-05,-1.108e-05,0.0,0 STARLINK-5606,1 55767U 23028AC  24025.37468911 -.00001108  00000-0 -85068-4 0  9990,2 55767  70.0007  16.9641 0002698 255.7901 104.2959 14.98333115 50549,6950.183,96.107,573.923,570.173,0.0
55767.0,STARLINK-5606,PAYLOAD,2024-01-26 04:13:10,14.98319603,0.0002965,70.0006,14.9444,260.2318,99.8507,0.00013494,1.517e-05,0.0,0 STARLINK-5606,1 55767U 23028AC  24026.17581733  .00001517  00000-0  13494-3 0  9992,2 55767  70.0006  14.9444 0002965 260.2318  99.8507 14.98319603 50653,6950.225,96.108,574.151,570.029,0.0
55767.0,STARLINK-5606,PAYLOAD,2024-01-26 09:01:34,14.98322318,0.0002918,70.0007,14.4395,259.2511,100.832,0.00015853,1.799e-05,0.0,0 STARLINK-5606,1 55767U 23028AC  24026.37609603  .00001799  00000-0  15853-3 0  9994,2 55767  70.0007  14.4395 0002918 259.2511 100.8320 14.98322318 50692,6950.217,96.107,574.11,570.054,0.0
55767.0,STARLINK-5606,PAYLOAD,2024-01-27 09:03:35,14.98327822,0.0002765,70.0012,11.9145,260.0433,100.0414,9.5985e-08,-9.2e-07,0.0,0 STARLINK-5606,1 55767U 23028AC  24027.37749978 -.00000092  00000-0  95985-7 0  9999,2 55767  70.0012  11.9145 0002765 260.0433 100.0414 14.98327822 50833,6950.2,96.107,573.986,570.143,0.0
55767.0,STARLINK-5606,PAYLOAD,2024-01-28 07:29:28,14.98332588,0.0002782,70.0013,9.5579,264.2899,95.7943,1.8086e-05,1.23e-06,0.0,0 STARLINK-5606,1 55767U 23028AC  24028.31213601  .00000123  00000-0  18086-4 0  9991,2 55767  70.0013   9.5579 0002782 264.2899  95.7943 14.98332588 50987,6950.185,96.107,573.983,570.116,0.0
55767.0,STARLINK-5606,PAYLOAD,2024-01-28 21:54:41,14.98332725,0.0002773,70.0015,8.0426,269.3485,90.7356,2.215e-05,1.71e-06,0.0,0 STARLINK-5606,1 55767U 23028AC  24028.91297545  .00000171  00000-0  22150-4 0  9996,2 55767  70.0015   8.0426 0002773 269.3485  90.7356 14.98332725 51078,6950.184,96.107,573.977,570.122,0.0
55767.0,STARLINK-5606,PAYLOAD,2024-01-29 07:31:29,14.98332439,0.000261,70.0015,7.0329,255.6184,104.4685,3.2399e-05,2.94e-06,0.0,0 STARLINK-5606,1 55767U 23028AC  24029.31353392  .00000294  00000-0  32399-4 0  9996,2 55767  70.0015   7.0329 0002610 255.6184 104.4685 14.98332439 51129,6950.185,96.107,573.864,570.236,0.0
55767.0,STARLINK-5606,PAYLOAD,2024-01-30 09:09:38,14.98329383,0.0002645,70.0018,4.3398,260.2419,99.8441,-2.6077e-05,-4.04e-06,0.0,0 STARLINK-5606,1 55767U 23028AC  24030.38169647 -.00000404  00000-0 -26077-4 0  9994,2 55767  70.0018   4.3398 0002645 260.2419  99.8441 14.98329383 51287,6950.195,96.107,573.898,570.221,0.0
55767.0,STARLINK-5606,PAYLOAD,2024-01-31 07:35:31,14.98328868,0.0002682,70.0018,1.9835,256.2796,103.8065,-2.4449e-05,-3.85e-06,0.0,0 STARLINK-5606,1 55767U 23028AC  24031.31633632 -.00000385  00000-0 -24449-4 0  9997,2 55767  70.0018   1.9835 0002682 256.2796 103.8065 14.98328868 51432,6950.196,96.107,573.925,570.197,0.0
55767.0,STARLINK-5606,PAYLOAD,2024-01-31 22:00:44,14.98327095,0.0002736,70.002,0.47,251.1108,108.9754,5.8431e-06,-2.3e-07,0.0,0 STARLINK-5606,1 55767U 23028AC  24031.91717647 -.00000023  00000-0  58431-5 0  9999,2 55767  70.0020   0.4700 0002736 251.1108 108.9754 14.98327095 51523,6950.202,96.107,573.968,570.165,0.0
55767.0,STARLINK-5606,PAYLOAD,2024-02-01 02:49:08,14.98327056,0.0002731,70.0019,359.9648,252.0517,108.0344,5.2519e-06,-3e-07,0.0,0 STARLINK-5606,1 55767U 23028AC  24032.11745685 -.00000030  00000-0  52519-5 0  9994,2 55767  70.0019 359.9648 0002731 252.0517 108.0344 14.98327056 51548,6950.202,96.107,573.965,570.169,0.0
55767.0,STARLINK-5606,PAYLOAD,2024-02-01 07:37:32,14.98325779,0.0002741,70.0019,359.4595,253.9165,106.1692,-1.1031e-05,-2.25e-06,0.0,0 STARLINK-5606,1 55767U 23028AC  24032.31773865 -.00000225  00000-0 -11031-4 0  9997,2 55767  70.0019 359.4595 0002741 253.9165 106.1692 14.98325779 51583,6950.206,96.107,573.976,570.166,0.0
55767.0,STARLINK-5606,PAYLOAD,2024-02-01 20:26:36,14.98330886,0.0002847,70.0014,358.1116,259.003,101.0809,5.7945e-05,5.99e-06,0.0,0 STARLINK-5606,1 55767U 23028AC  24032.85181379  .00000599  00000-0  57945-4 0  9995,2 55767  70.0014 358.1116 0002847 259.0030 101.0809 14.98330886 51666,6950.19,96.107,574.034,570.076,0.0
55767.0,STARLINK-5606,PAYLOAD,2024-02-02 04:27:17,14.98332066,0.0002866,70.0012,357.2696,260.4884,99.5952,3.8055e-05,3.61e-06,0.0,0 STARLINK-5606,1 55767U 23028AC  24033.18561352  .00000361  00000-0  38055-4 0  9993,2 55767  70.0012 357.2696 0002866 260.4884  99.5952 14.98332066 51708,6950.187,96.107,574.043,570.06,0.0
55767.0,STARLINK-5606,PAYLOAD,2024-02-02 07:39:32,14.98334123,0.0002841,70.0013,356.933,260.5824,99.5014,6.0876e-05,6.34e-06,0.0,0 STARLINK-5606,1 55767U 23028AC  24033.31913129  .00000634  00000-0  60876-4 0  9990,2 55767  70.0013 356.9330 0002841 260.5824  99.5014 14.98334123 51736,6950.18,96.107,574.02,570.071,0.0
55767.0,STARLINK-5606,PAYLOAD,2024-02-02 22:04:45,14.98329008,0.0002711,70.0015,355.4176,261.8712,98.2139,3.836e-05,3.65e-06,0.0,0 STARLINK-5606,1 55767U 23028AC  24033.91997457  .00000365  00000-0  38360-4 0  9996,2 55767  70.0015 355.4176 0002711 261.8712  98.2139 14.98329008 51826,6950.196,96.107,573.945,570.177,0.0
55767.0,STARLINK-5606,PAYLOAD,2024-02-03 07:41:34,14.9833078,0.0002686,70.0016,354.4081,262.2501,97.8353,5.1788e-05,5.25e-06,0.0,0 STARLINK-5606,1 55767U 23028AC  24034.32053304  .00000525  00000-0  51788-4 0  9993,2 55767  70.0016 354.4081 0002686 262.2501  97.8353 14.98330780 51870,6950.19,96.107,573.922,570.189,0.0
55767.0,STARLINK-5606,PAYLOAD,2024-02-03 22:06:46,14.98333056,0.0002569,70.0017,352.8937,262.4315,97.6552,6.7221e-06,-1.3e-07,0.0,0 STARLINK-5606,1 55767U 23028AC  24034.92137174 -.00000013  00000-0  67221-5 0  9990,2 55767  70.0017 352.8937 0002569 262.4315  97.6552 14.98333056 51977,6950.183,96.107,573.834,570.263,0.0
55767.0,STARLINK-5606,PAYLOAD,2024-02-04 07:43:34,14.9833477,0.0002581,70.0018,351.8832,266.6268,93.4595,2.1704e-05,1.66e-06,0.0,0 STARLINK-5606,1 55767U 23028AC  24035.32192952  .00000166  00000-0  21704-4 0  9993,2 55767  70.0018 351.8832 0002581 266.6268  93.4595 14.98334770 52020,6950.178,96.107,573.837,570.249,0.0
55767.0,STARLINK-5606,PAYLOAD,2024-02-04 22:08:47,14.98322645,0.0002373,70.0026,350.3669,259.3664,100.7228,1.6069e-06,-7.4e-07,0.0,0 STARLINK-5606,1 55767U 23028AC  24035.92277689 -.00000074  00000-0  16069-5 0  9998,2 55767  70.0026 350.3669 0002373 259.3664 100.7228 14.98322645 52123,6950.216,96.107,573.73,570.431,0.0
55767.0,STARLINK-5606,PAYLOAD,2024-02-05 04:33:20,14.98319356,0.0002574,70.0021,349.6945,263.896,96.1906,-1.4008e-05,-2.6e-06,0.0,0 STARLINK-5606,1 55767U 23028AC  24036.18982057 -.00000260  00000-0 -14008-4 0  9997,2 55767  70.0021 349.6945 0002574 263.8960  96.1906 14.98319356 52157,6950.226,96.108,573.88,570.302,0.0
55767.0,STARLINK-5606,PAYLOAD,2024-02-05 14:10:08,14.98329656,0.0002803,70.0017,348.6842,268.0708,92.013,-1.3248e-05,-2.51e-06,0.0,0 STARLINK-5606,1 55767U 23028AC  24036.59037428 -.00000251  00000-0 -13248-4 0  9990,2 55767  70.0017 348.6842 0002803 268.0708  92.0130 14.98329656 52225,6950.194,96.107,574.007,570.111,0.0
